{
  "type": "FeatureCollection",
  "features": [
    {
      "type": "Feature",
      "properties": {
        "norad_id": 32331,
        "name": "FENGYUN 1C DEB",
        "group": "fengyun-1c-debris",
        "lat": -15.467843289775473,
        "lon": -52.79736294971973,
        "alt_km": 671.3189279978287,
        "timestamp": "2025-12-04T03:47:54.829292+00:00",
        "meta_object_name": "FENGYUN 1C DEB",
        "meta_object_id": "1999-025CXY",
        "meta_epoch": "2025-11-11T08:35:02.141088",
        "meta_mean_motion": 14.68670701,
        "meta_eccentricity": 0.0013407,
        "meta_inclination": 99.1837,
        "meta_ra_of_asc_node": 279.0061,
        "meta_arg_of_pericenter": 226.0291,
        "meta_mean_anomaly": 133.9806,
        "meta_ephemeris_type": 0,
        "meta_classification_type": "U",
        "meta_norad_cat_id": 32331,
        "meta_element_set_no": 999,
        "meta_rev_at_epoch": 60157,
        "meta_bstar": 0.0092524,
        "meta_mean_motion_dot": 0.0005428,
        "meta_mean_motion_ddot": 0,
        "tle_line1": "1 32331U 99025CXY 25315.35766367  .00054280  00000+0  92524-2 0  9998",
        "tle_line2": "2 32331  99.1837 279.0061 0013407 226.0291 133.9806 14.68670701601572"
      },
      "geometry": {
        "type": "Point",
        "coordinates": [
          -52.79736294971973,
          -15.467843289775473
        ]
      }
    },
    {
      "type": "Feature",
      "properties": {
        "norad_id": 32332,
        "name": "FENGYUN 1C DEB",
        "group": "fengyun-1c-debris",
        "lat": 58.36494731189307,
        "lon": -132.61213535287956,
        "alt_km": 1063.876281067659,
        "timestamp": "2025-12-04T03:47:54.829302+00:00",
        "meta_object_name": "FENGYUN 1C DEB",
        "meta_object_id": "1999-025CXZ",
        "meta_epoch": "2025-11-29T21:49:05.913408",
        "meta_mean_motion": 13.97030722,
        "meta_eccentricity": 0.02850137,
        "meta_inclination": 99.1337,
        "meta_ra_of_asc_node": 28.0232,
        "meta_arg_of_pericenter": 348.1334,
        "meta_mean_anomaly": 11.3206,
        "meta_ephemeris_type": 0,
        "meta_classification_type": "U",
        "meta_norad_cat_id": 32332,
        "meta_element_set_no": 999,
        "meta_rev_at_epoch": 92857,
        "meta_bstar": 0.0013397754,
        "meta_mean_motion_dot": 2.591e-05,
        "meta_mean_motion_ddot": 0,
        "tle_line1": "1 32332U 99025CXZ 25333.90909622  .00002591  00000+0  13398-2 0  9993",
        "tle_line2": "2 32332  99.1337  28.0232 0285013 348.1334  11.3206 13.97030722928577"
      },
      "geometry": {
        "type": "Point",
        "coordinates": [
          -132.61213535287956,
          58.36494731189307
        ]
      }
    },
    {
      "type": "Feature",
      "properties": {
        "norad_id": 32334,
        "name": "FENGYUN 1C DEB",
        "group": "fengyun-1c-debris",
        "lat": 9.485804825281368,
        "lon": -145.99083090411793,
        "alt_km": 923.6172617428665,
        "timestamp": "2025-12-04T03:47:54.829312+00:00",
        "meta_object_name": "FENGYUN 1C DEB",
        "meta_object_id": "1999-025CYB",
        "meta_epoch": "2025-12-02T03:00:46.825344",
        "meta_mean_motion": 14.01624263,
        "meta_eccentricity": 0.00664079,
        "meta_inclination": 99.2542,
        "meta_ra_of_asc_node": 30.3872,
        "meta_arg_of_pericenter": 310.7393,
        "meta_mean_anomaly": 48.8018,
        "meta_ephemeris_type": 0,
        "meta_classification_type": "U",
        "meta_norad_cat_id": 32334,
        "meta_element_set_no": 999,
        "meta_rev_at_epoch": 93791,
        "meta_bstar": 0.00038671814,
        "meta_mean_motion_dot": 5.5e-06,
        "meta_mean_motion_ddot": 0,
        "tle_line1": "1 32334U 99025CYB 25336.12554196  .00000550  00000+0  38672-3 0  9990",
        "tle_line2": "2 32334  99.2542  30.3872 0066407 310.7393  48.8018 14.01624263937917"
      },
      "geometry": {
        "type": "Point",
        "coordinates": [
          -145.99083090411793,
          9.485804825281368
        ]
      }
    },
    {
      "type": "Feature",
      "properties": {
        "norad_id": 32340,
        "name": "FENGYUN 1C DEB",
        "group": "fengyun-1c-debris",
        "lat": -2.2057046791985897,
        "lon": -16.614245048918622,
        "alt_km": 631.3970942929991,
        "timestamp": "2025-12-04T03:47:54.829342+00:00",
        "meta_object_name": "FENGYUN 1C DEB",
        "meta_object_id": "1999-025CYH",
        "meta_epoch": "2025-12-03T11:31:05.163168",
        "meta_mean_motion": 14.74095933,
        "meta_eccentricity": 0.0034892,
        "meta_inclination": 98.9809,
        "meta_ra_of_asc_node": 342.2859,
        "meta_arg_of_pericenter": 323.7129,
        "meta_mean_anomaly": 36.171,
        "meta_ephemeris_type": 0,
        "meta_classification_type": "U",
        "meta_norad_cat_id": 32340,
        "meta_element_set_no": 999,
        "meta_rev_at_epoch": 97060,
        "meta_bstar": 0.0034693,
        "meta_mean_motion_dot": 0.00023088,
        "meta_mean_motion_ddot": 0,
        "tle_line1": "1 32340U 99025CYH 25337.47992087  .00023088  00000+0  34693-2 0  9990",
        "tle_line2": "2 32340  98.9809 342.2859 0034892 323.7129  36.1710 14.74095933970608"
      },
      "geometry": {
        "type": "Point",
        "coordinates": [
          -16.614245048918622,
          -2.2057046791985897
        ]
      }
    },
    {
      "type": "Feature",
      "properties": {
        "norad_id": 32342,
        "name": "FENGYUN 1C DEB",
        "group": "fengyun-1c-debris",
        "lat": 14.973613273744935,
        "lon": 169.36898201123347,
        "alt_km": 853.5071669575836,
        "timestamp": "2025-12-04T03:47:54.829354+00:00",
        "meta_object_name": "FENGYUN 1C DEB",
        "meta_object_id": "1999-025CYK",
        "meta_epoch": "2025-12-03T12:27:22.067424",
        "meta_mean_motion": 14.13392665,
        "meta_eccentricity": 0.0007994,
        "meta_inclination": 98.6706,
        "meta_ra_of_asc_node": 346.4105,
        "meta_arg_of_pericenter": 17.5352,
        "meta_mean_anomaly": 136.247,
        "meta_ephemeris_type": 0,
        "meta_classification_type": "U",
        "meta_norad_cat_id": 32342,
        "meta_element_set_no": 999,
        "meta_rev_at_epoch": 93587,
        "meta_bstar": 0.00015107,
        "meta_mean_motion_dot": 2.41e-06,
        "meta_mean_motion_ddot": 0,
        "tle_line1": "1 32342U 99025CYK 25337.51900541  .00000241  00000+0  15107-3 0  9997",
        "tle_line2": "2 32342  98.6706 346.4105 0007994  17.5352 136.2470 14.13392665935872"
      },
      "geometry": {
        "type": "Point",
        "coordinates": [
          169.36898201123347,
          14.973613273744935
        ]
      }
    },
    {
      "type": "Feature",
      "properties": {
        "norad_id": 32343,
        "name": "FENGYUN 1C DEB",
        "group": "fengyun-1c-debris",
        "lat": 37.961287578883166,
        "lon": 151.945522195402,
        "alt_km": 716.1073204627683,
        "timestamp": "2025-12-04T03:47:54.829364+00:00",
        "meta_object_name": "FENGYUN 1C DEB",
        "meta_object_id": "1999-025CYL",
        "meta_epoch": "2025-11-23T04:58:45.910848",
        "meta_mean_motion": 14.1981282,
        "meta_eccentricity": 0.01511129,
        "meta_inclination": 98.6065,
        "meta_ra_of_asc_node": 314.5087,
        "meta_arg_of_pericenter": 183.896,
        "meta_mean_anomaly": 176.1052,
        "meta_ephemeris_type": 0,
        "meta_classification_type": "U",
        "meta_norad_cat_id": 32343,
        "meta_element_set_no": 999,
        "meta_rev_at_epoch": 64436,
        "meta_bstar": 0.00029765257,
        "meta_mean_motion_dot": 6.65e-06,
        "meta_mean_motion_ddot": 0,
        "tle_line1": "1 32343U 99025CYL 25327.20747582  .00000665  00000+0  29765-3 0  9992",
        "tle_line2": "2 32343  98.6065 314.5087 0151112 183.8960 176.1052 14.19812820644366"
      },
      "geometry": {
        "type": "Point",
        "coordinates": [
          151.945522195402,
          37.961287578883166
        ]
      }
    },
    {
      "type": "Feature",
      "properties": {
        "norad_id": 32350,
        "name": "FENGYUN 1C DEB",
        "group": "fengyun-1c-debris",
        "lat": 48.711163910705984,
        "lon": -147.45610091872535,
        "alt_km": 896.7792370176594,
        "timestamp": "2025-12-04T03:47:54.829374+00:00",
        "meta_object_name": "FENGYUN 1C DEB",
        "meta_object_id": "1999-025CYT",
        "meta_epoch": "2025-12-03T09:00:31.237920",
        "meta_mean_motion": 14.524285,
        "meta_eccentricity": 0.0267693,
        "meta_inclination": 98.2296,
        "meta_ra_of_asc_node": 22.2895,
        "meta_arg_of_pericenter": 327.5757,
        "meta_mean_anomaly": 30.9229,
        "meta_ephemeris_type": 0,
        "meta_classification_type": "U",
        "meta_norad_cat_id": 32350,
        "meta_element_set_no": 999,
        "meta_rev_at_epoch": 97391,
        "meta_bstar": 0.0009364,
        "meta_mean_motion_dot": 6.068e-05,
        "meta_mean_motion_ddot": 0,
        "tle_line1": "1 32350U 99025CYT 25337.37536155  .00006068  00000+0  93640-3 0  9997",
        "tle_line2": "2 32350  98.2296  22.2895 0267693 327.5757  30.9229 14.52428500973913"
      },
      "geometry": {
        "type": "Point",
        "coordinates": [
          -147.45610091872535,
          48.711163910705984
        ]
      }
    }
  ]
}